Store Number,Store Name,Address,Latitude,Longitude
3925,Allen Solly Allen Solly Store,Marathahalli,0.000000,0.000000
4211,Allen Solly ALLEN SOLLY,"Allen Solly, West Krishna Plaza, Lakshmipuram Main Road, Guntur",16.312325,80.425270
11,Allen Solly AS Mainline Banjara Hills,"ALLEN SOLLY , Shop no:86, Ground floor, Road no:2, Near LV Prasad eye Hospital, Banjara hills, Hyderabad-500034 Telangana",28.570833,78.431580
19,Allen Solly Kukatpally,"Allen Solly, G1 Ground floor H, No MIG , 5, Road No 1, KPHP Colony, Kukatpally, Hyderabad , 500072",17.492832,78.402275
49,Allen Solly AS Mainline Himayathanagar,"Allen Solly, Shop No. 3-6-150, Himayatnagar, Hyderabad, Telangana - 500029",17.402250,79.483612
69,Allen Solly AS Mainline Dilsukhnagar,"Allen Solly No.17-109,Plot No.2&3,Chaitanyapuri,Dilsukhnagar,Hyd-500060,Telangana State",17.368639,78.388863
89,Allen Solly AS Mainline Habsiguda,"Allen Solly, H No1 - 31/1A, Block 3, Plot No 2/B, Part of G block, Habsiguda main road, Hyderabad - 500007",17.692528,78.915443
132,Allen Solly AS Mainline GVK Mall,"allen solly, shop no 7 & 8 gvk one mall 1st floor. banjara hills road no 1. 500032",17.419611,78.448303
133,Allen Solly AS Women Forum Sujana Mall,"Allen solly Womens, shop no 202 second floor forum sujana Mall kukatapally JNTU road ,hyderabad 500072, 040-30534141",17.483999,78.388863
134,Allen Solly AS Mainline Forum Sujana Mall,"Allen solly, #122,Forum Sujana Mall Kukkatpally, Hyderabad.AP 500072",17.483999,78.388863
135,Allen Solly AS Junior GVK,"ALLEN SOLLY JUNIOUR, Shop no:09, GVK Mall, Road no:01, Banjara Hills, Hyderabad-500034",17.420029,78.448196
1659,Allen Solly AS Mainline Kukatapally,"Allen Solly, G1 Ground floor H, No MIG - 5, Road No 1, KPHP Colony, Kukatpally, Hyderabad - 500072",17.492832,78.402275
4105,Allen Solly Allen Solly,"Allen solly,L3 04 &05, L&T Metro Mall( Next) B7 Nagarjuna Hills, Panjagutta, Hyderabad,Telangana 500082",18.520399,73.856697
61,Allen Solly AS Mainline Rajamudry,"Allen solly , SS Towers , Opp : greenpark restuarant , Danavaipeta , Rajahmundry . AP -533101.",17.006639,81.785278
9,Allen Solly AS Mainline Ripples Mall,"Allen Solly, Ripples Mall , Shop no: G0 6 GF, Mg road, Vijayawada -520010. ph no- 0866 2464025",16.506174,80.648018
96,Allen Solly AS Mainline Mogalarajapuram,"Allen Solly,D No.40-1-150, Beside MVR shopping Mall, MG Road, Vijayawada - 520 010",16.506174,80.648018
4611,Allen Solly Allen Solly,"Allen Solly, VSN one, VSN estates, D. No: 59-13-34/1A,Gayathri Nagar, Vijawada-520008",0.000000,0.000000
5,Allen Solly AS Mainline DABAGARDENS,"Allen Solly, City plaza building, 30-15-136, Dhaba garden main rd, dhaba garden Vizag-530020",17.715778,83.302109
57,Allen Solly AS Mainline Siripuram,"Allen solly Shop No 10-1-42 / A, CBM compound Up lands raod siripuram main road, Visakhapatam Andhra Prades 530003",17.724972,83.316193
74,Allen Solly AS Women GS Road,"Allen Solly NO. 125, Bora service Ulubari, GS road Guwahati, 781007",26.170584,91.762810
75,Allen Solly AS Junior GS Road,"Allen Solly, Junior Store, No-125/A, Bora Service, Ulubari, GS Road, Guwahati-781007",26.170584,91.762810
98,Allen Solly AS Junior Boring Rd,"Allen Solly Junior, lata kunj apartment boring road patna 800001",25.613972,85.117165
13,Allen Solly AS Mainline Phase 7 Mohali,"Allen Solly , SCF-88 , Phase- 7 Market , SAS Nagar , Mohali , Punjab -160062",30.716307,76.707138
50,Allen Solly Solly Jeans SECTOR 17,"Allen Solly, SCO 20, Sector 17E, Chandigarh - 160017",30.740019,76.777657
79,Allen Solly AS Mainline Sector 17,"Solly Jeans, SCO-11, Near Indian Coffee House ,sector 17E, Chandigarh -160017",30.740862,76.780746
152,Allen Solly AS Mainline L & T Chandigarh,"Allen solly, No-126, 1st Floor, 178-178A, Elante Mall by L&T Industrial Area - Phase - 1, Chandigarh - 160002",30.705587,76.801147
153,Allen Solly AS Women L & T Elante,"Solly Women, Shop number 226, 2nd floor, Elante Mall, Chandigarh - 160002",30.705389,76.801247
2343,"Allen Solly Elante Mall, Chandigarh","Allen Solly, Shop No 126/127, 1st floor, Elante Mall, Industrial Area, Phase 1, Chandigarh - 160002",30.705601,76.801300
6,"Allen Solly AS Mainline CP F Block, Delhi","ALLEN SOLLY, F-13, Inner Circle, Cannught Place, New Delhi - 110 001.",10.026778,77.220390
31,Allen Solly AS Mainline Paschim Vihar,"Allen Solly No A-3/ 263, Ground Floor, Paschim Vihar, New Delhi - 110063",28.669971,77.106857
38,Allen Solly AS Mainline South Ex,"Allen Solly, F40, South Ex Part 1, South Ex, New Delhi - 110049",28.569111,77.219330
45,Allen Solly AS Mainline Rajauri garden,"Allen Solly, F-138, Ground floor, Rajouri garden Market, New Delhi - 110027",28.642694,77.123085
51,Allen Solly AS Mainline Lajpat nagar,"Allen solly ,E -20/B ,Veer Savarkar Road, Lajpat nagar II ,New Delhi, 110024",28.570223,77.241142
67,Allen Solly AS Mainline Kamlanagar,"Allen Solly,Shop No. 21, SPARK, Mandela Chowk, Kamlanagar, Delhi-110007",28.680805,77.203857
82,Allen Solly AS Mainline SAKET,"Allen Solly, Shop no. 05, First Floor, Select City Walk Mall, Saket, Plot no. 943, District Centre, New Delhi - 110017",28.528557,77.219444
83,Allen Solly AS Mainline City Center Mall,"Allen Solly, Shop No 20 & 21, citi Center Mall, Plot 1b3, Sector 10, Rohini Twin district center 1, New Delhi - 110085",28.716972,77.114418
84,Allen Solly AS Mainline V3S Mall,"Allen Solly,Shop no-81 & 88,V3S Mall , Laxmi Nagar,East Centre,ND-110092.",28.629444,77.274246
85,Allen Solly Solly Jeans Kamalanagar,"Solly Jeans Com Shop No 28-UA,Ground floor Jawahar Nagar,Bunglow Road Delhi 110007",28.680338,77.208168
87,Allen Solly AS Women Select City Walk Mall,"Solly Women, Select City Mall, First Floor, Shop Number -1 Saket 110017",13.058667,77.219444
128,Allen Solly AS Mainline Pacific Mall,"Allen Solly, Pacific Mall, Shop No 30 FF, Near Subhash Nagar Metro, Najafgarh road, Khayala New Delhi - 110018",28.642305,77.106277
2320,Allen Solly Solly WW Select City Walk Mall,"Solly Women, Select City Mall, First Floor, Shop Number -1 Saket 110017",28.528118,77.215340
4603,Allen Solly Allen Solly,"Allen solly, First floor shop-155 Vegas mall dwarka New delhi-110078",28.613001,77.095100
4610,Allen Solly Allen Solly,"Allen Solly, UG1-5, Ground Floor, Kurtakar Regency, Isidore Baptista Road, Margao Goa- 403601",0.000000,0.000000
37,Allen Solly AS Mainline Miramar,"Allen solly ,kamala house D.B. Marg opp. magsons super market center ,miramar ,panjim GOA -403001",15.487556,73.813278
33,Allen Solly AS Mainline Alpha One,"Allen Solly Shop no G-15, AlphaOne mall, Opp Vastrapur Lake, Ahmedabad-380054",18.565390,73.806664
177,Allen Solly AS Mainline ISCON,"Allen Solly,Shop no 233 & 234,Iscon Mega Mall,S.G.Highway,Ahmedabad - 380054",23.030443,72.508057
179,Allen Solly AS Mainline CGROAD,"Allen Solly, Shop No 1, Raindrop building, C.G Road, Opp. Cargo Motors, Ahmedabad - 380006",23.028473,72.558472
4239,Allen Solly Allen Solly,"Allen Solly, Sanghavi Sadan Complex, Near- Jagnath Police Choki, Dr. Yagnik Road, Rajkot-360001",22.303900,70.802200
4573,Allen Solly Allen Solly,"Sanghavi Sadan Complex, Near- Jagnath Police Choki, Dr Yagnik Rd, Rajkot, Gujarat 360001",22.303900,70.802200
35,Allen Solly AS Mainline VR Mall,"Allen Solly, F 303 VR Mall, Dummas road, Surat 395007",21.145779,72.756920
18,Allen Solly Seven Seas Mall,"Allen Solly, Shop No 9, Ground Floor, Seven Seas Mall, Fateh Gunj, Vadodara , 390002",22.307159,73.181221
20,"Allen Solly AS Mainline Inorbit Mall, Baroda","Allen Solly G-25,Inorbit Mall, Nr.gunjan twore, subhanpura, Gorwa Road, Vadodara pin-390003",22.322124,73.165886
97,Allen Solly AS Mainline Vadodara,ALLEN SOLLY SHOWROOM-34968 A_wing Carnation Complex Plot No.47. Gautam Nagar Vadodara-390007,22.307167,73.181221
4614,Allen Solly Allen Solly,"Allen Solly,Unit No F-20, Inorbit Mall, Survey No. 100(part) lying and situated at Alembic Road, Vadorara in the village - Subhanpura, Vadodara Gujarat- 390023",0.000000,0.000000
141,Allen Solly AS Mainline Crown intiriarz Mall,"Allen Solly, Shop No G33, Crown Interiorz Mall, Main Mathura Road, Faridabad - 121002",28.469889,77.307220
4144,Allen Solly Allen Solly,"Impressions, Shop No. 43A &44, Ground Floor, Mgf Metropolitan Mall, MG ROAD",28.481276,77.078194
4145,Allen Solly Allen Solly,"Impressions, Shop No. 43A &44, Ground Floor, Mgf Metropolitan Mall, MG ROAD",28.481276,77.078194
4146,Allen Solly Allen Solly,"Impressions, Shop No. 43A &44, Ground Floor, Mgf Metropolitan Mall, MG ROAD",28.481276,77.078194
4147,Allen Solly Allen Solly,"Impressions, Shop No. 43A &44, Ground Floor, Mgf Metropolitan Mall, MG ROAD",28.481276,77.078194
4148,Allen Solly Allen Solly,"Impressions, Shop No. 43A &44, Ground Floor, Mgf Metropolitan Mall, MG ROAD",28.481276,77.078194
4149,Allen Solly Allen Solly,"Impressions, Shop No. 43A &44, Ground Floor, Mgf Metropolitan Mall, MG ROAD",28.481276,77.078194
4150,Allen Solly Allen Solly,"Impressions, Shop No. 43A &44, Ground Floor, Mgf Metropolitan Mall, MG ROAD",28.481276,77.078194
4151,Allen Solly Allen Solly,"Impressions, Shop No. 43A &44, Ground Floor, Mgf Metropolitan Mall, MG ROAD",28.481276,77.078194
4152,Allen Solly Allen Solly,"Impressions, Shop No. 43A &44, Ground Floor, Mgf Metropolitan Mall, MG ROAD",28.481276,77.078194
4153,Allen Solly Allen Solly,"Impressions, Shop No. 43A &44, Ground Floor, Mgf Metropolitan Mall, MG ROAD",28.481276,77.078194
4154,Allen Solly Allen Solly,"Impressions, Shop No. 43A &44, Ground Floor, Mgf Metropolitan Mall, MG ROAD",28.481276,77.078194
4155,Allen Solly Allen Solly,"Impressions, Shop No. 43A &44, Ground Floor, Mgf Metropolitan Mall, MG ROAD",28.481276,77.078194
4156,Allen Solly Allen Solly,"Impressions, Shop No. 43A &44, Ground Floor, Mgf Metropolitan Mall, MG ROAD",28.481276,77.078194
4163,Allen Solly Allen solly,"Impressions, Shop No. 43A &44, Ground Floor, Mgf Metropolitan Mall, MG ROAD",28.481276,77.078194
4625,Allen Solly Allen Solly,"Allen Solly, Shop No - SCF-80, Urban Estate II, Hisar - 125001",20.004503,73.769386
123,Allen Solly AS Mainline Kessal mall,"Allen solly,shop no 17/30 kessal mall,sec -17 kurukshera,haryana (136118)",29.970694,76.836555
23,"Allen Solly AS Mainline Sector 8, Panchkula","Allen Solly SCO-388/B, Sector-08, Panchkula, Haryana-134109",30.699778,76.849083
158,Allen Solly AS Junior Bokaro,"Allen Solly Junior, central avenue sector 3/c near city center Bokaro Mall (shop no- 10) Bokaro steel city -827003, jharkhand",23.351528,23.351528
1206,Allen Solly AS Mainline Center Point mall,"Allen Solly Mens,Shop No. G 15 to G 18, Ground Floor, Center Point Mall, Bank More, Dhanbad - 826001. Jharkhand",23.795700,86.430397
34,"Allen Solly AS Mainline Main road, Baroda","Allen Solly 24-25 ,MAIN ROAD, BISTUPUR, OPP. BANK OF BARODA, JAMSHEDPUR-831001",22.793556,86.184303
25,"Allen Solly AS Mainline Main Road, Ranchi","Allen Solly, plot no- 1204, Beside Icici Bank,Main Road, Ranchi-834001",23.349194,85.290810
76,Allen Solly AS Junior Seeta Bhawan,"Allen solly Junior, Seeta Bhawan, Holding no- 736-a1 plot no- 1223, Main Road Ranchi-834001",23.351528,23.351528
182,Allen Solly AS Junior Circular Road,"Allen Solly Junior, Shop No- 01, Plot No- 2306, Circular Road, Ranchi.",23.369694,85.339531
4619,Allen Solly Allen Solly,"""Allen SollyShop No S014Second FloorNucleus MallMS Plot No 1690, Holding No 587, Circilar Road, Lalpur, Ranchi- 834001""",0.000000,0.000000
58,Allen Solly AS Mainline Civil Hospital Road,Allen Solly Cts No 4830/28/D Civil Hospital Road Belgaum 590001,15.869778,74.511948
95,Allen Solly Kirloskar Road,"Allen Solly, Mujawar Building CST No 1749/A2, Kirlosker Road, Belgaum , 590002",15.858972,74.509361
12,Allen Solly Jayanagar,"ALLEN SOLLY, # 346/17, 10th A Main, 27th Cross, 3rd Block, Jayanagar, Bangalore , 560 011",12.930750,77.585251
28,Allen Solly AS Mainline COMM STREET Mens Store,"Allen Solly Showroom, # 163, Commercial Street, Bangalore - 560 001",12.982028,77.608971
40,Allen Solly AS Mainline Brigade Road,"Allen Solly Store, 208, Glenand Building, Brigade Road, Banaglore, Karnataka - 560001",12.974278,77.607666
52,Allen Solly AS Junior Jayanagar New Store,"Allen solly junior,No-7,11th main 3rd block jayanagar 560011.",12.931389,77.586082
62,Allen Solly AS Mainline Koramangala,"Allen Solly, #91,19th Main,Kormangala 6th Block, Bangalore -560095.",12.940020,77.620766
73,Allen Solly Solly Jeans Brigade Rd,"Allen Solly Curzon Complex, composite Municipal No.8, Unit No.1, Ground Floor,Brigade Rd Bangalore - Karnataka 560001",12.973621,77.607513
80,Allen Solly AS Mainline Kammanahalli,"Allen Solly,4m-409,next to alice jewels,kamanahalli main rd 3rd block ,hrbr layout,Kalyanagar,Bangalore-560032",13.023861,77.637054
90,Allen Solly Allen Solly Womens and Kids,"Solly women, #759, Ward No 72,Domlur, HAL 2n, Bangalore 560038",12.971891,77.641151
91,Allen Solly AS Flagship Store Jayanagar,"Allen Solly Flagship store, No.12/29 (Old No.12), SOMS - VIVA 11th main road, 4th Block Jayanagar 560011",12.971891,77.641151
163,Allen Solly AS Mainline Royal Meenakshi,"Allen Solly (32916,100952) Shop no. G010B Ground Floor ,Royal Meenakshi Mall,Bannerghatta . Main Road,Bangalore-560076",12.875833,77.595558
164,Allen Solly AS Mainline Phoenix Market City,"Allen Solly, Shop No. F-38A, 1st Floor, Phoenix Market City Mall, K.R.Puram, Hobli, South Bangalore Taluk, Bangalore- 560048",12.996861,77.696198
165,Allen Solly AS Junior Phoenix Market City,"Allen Solly Junior, Store Shop 37 2nd floor phoenix market city mall K R Puram Hobli Bangalore South taluk bangalore 560048",12.997028,77.696281
166,Allen Solly AS Women Forum Mall Koramagala,"Solly Women, Unit No.103 1st Floor,Forum Mall Hosur Road.Bangalore-560095",12.928766,77.615517
167,Allen Solly Mantri Square Mall,"Allen Solly, UG 67 & 69 Mantri Mall, Municipal No.1, II main Road, Malleshwaram, Bangalore, 560003",12.991750,77.570580
168,Allen Solly AS Women Phoenix Market city Mall,"Solly Women Shop -No#G 49A,Phoenix Market City Mall.K.R.Puram Hobli.South Bangalore Taluk Bangalore-560048",12.995444,77.696136
170,Allen Solly AS Junior Forum Value Mall,"Allen solly Junior, No-62, Shop no-112, 1st floor, Forum value mall, Whitefield, Bangalore-66",12.570000,77.440002
171,Allen Solly AS Junior Mantri Square,"Allen solly Junior, No-61 , 2nd floor, Mantri Square, Malleshwaram, Banagalore - 560003",12.991600,77.570602
172,Allen Solly AS Mainline Orion Mall,"Allen Solly, UGF - 35, Brigade Orion Mall, Brigade gateway, 26/1, 80 feet road, Dr.Rajkumar road, Bangalore - 560055",13.010900,77.555000
176,Allen Solly AS Junior Orion Mall,"Allen Solly Junior,Brigade Orion Mall,Brigade Gateway,26/1,80 Feet Road Dr,Rajkumar Road,Bangalore-560055",13.014722,77.556442
1662,Allen Solly AS Business Store Mantri Mall,"Allen Solly, UG 67 & 69 Mantri Mall, Municipal No.1,II nd main rd, sampige Road, Malleshwaram, Bangalore,-Karnataka 560003",12.991750,77.570580
3965,Allen Solly Allen Solly,"Allen Solly, 777c, HAL 2nd Stage, 100 feet road, Indiranagar, Bangalore - 560038",12.967966,77.641113
4171,Allen Solly Allen Solly,"Allen Solly, Bearing No. 424, New PID No. 174-W0411-44, 10th Cross, 27th main, Sector 1, HSR Layout, Bangalore",12.917829,77.651810
4209,Allen Solly Basaveshwar nagar,"Allen Solly, Bearing “A”, No.465, PID No.19-1-465, 1st Block, 3rd Stage, Basaveshwaranagara Bangalore 560079",12.994906,77.539764
4210,Allen Solly New Bel Riad,"Allen Solly,No. 210, Below CANARA BANK,New BEL Road, MGE.CHBS Layout, Devasandra North of Bangalore-54",13.029760,77.570686
4242,Allen Solly ALLEN SOLLY,ALLEN SOLLY 465.PID NO19-465 1ST BLOCK 3RD STAGE BASAVESHWARANAGARA BANGALORE560079,18.520399,73.856697
4279,Allen Solly ALLEN SOLLY,"Allen Solly,No. 210, Below CANARA BANK,New BEL Road, MGE.CHBS Layout, Devasandra North of Bangalore-560054",13.014700,77.341400
4333,Allen Solly Allen Solly,"Shop no. UGF- 13, RMZ galleria, Yelhanka bangalore - 560064",0.000000,0.000000
4443,Allen Solly PETER ENGLAND,"PETER ENGLAND,834 GROUND FLOOR BEML LAYOUT 3RD STAGE RAJARAJESHWARI NAGAR BANGALORE-560098",12.910000,77.519997
4505,Allen Solly Allen Solly,"ALLEN SOLLY,PIDNO-79-2-50/51/52, BBMP MUNCIPAL SITE NO- 50/51/52, COMMERCIAL STREET BANGALORE, 560001",12.982190,77.608360
4506,Allen Solly Allen Solly,"ALLEN SOLLY,PIDNO-79-2-50/51/52, BBMP MUNCIPAL SITE NO- 50/51/52, COMMERCIAL STREET BANGALORE, 560001",12.982190,77.608360
4507,Allen Solly Allen Solly,"ALLEN SOLLY,PIDNO-79-2-50/51/52, BBMP MUNCIPAL SITE NO- 50/51/52, COMMERCIAL STREET BANGALORE, 560001",12.982190,77.608360
4605,Allen Solly Allen Solly,"The Forum Mall,Shop No 135,1st Floor No 21,Hosur Road ,Bangalore -560029",0.000000,0.000000
4608,Allen Solly Allen Solly,"Allen Solly, Shop No 135, First Floor, Forum Mall 21 Hosur Road Bangalore, Karnataka- 560029",0.000000,0.000000
4620,Allen Solly Allen Solly,"""Allen Solly, Ground Floor, Bearing No 6, Situated at P&T Colony, R T Nagar, Bangalore- 560032""",0.000000,0.000000
112,Allen Solly AS Mainline Mangalore-City Centre,"Allen Solly Shop No 9,10,11 1st floor City centre mall , KS Rao road Mangalore 575001",12.871694,74.842499
115,Allen Solly Forum Fiza Mall,"Allen Solly, Forum Fiza Mall, Shop No. 217, Second Floor Pandeshwar, Mangalore, 575001",12.857833,74.838470
70,Allen Solly AS Junior Devaraj Urs Road Junior,"Allen Solly Junior,site No60 devraj urs road D devraj urs road Mysore -570001",12.309243,76.649055
94,Allen Solly AS Business Store Devraj Urs Road,"ALLEN SOLLY, SHOP NO-149, DEVRAJ URS ROAD, DEVRAJ MOHALLA, MYSORE-570001",15.858972,74.509361
4043,Allen Solly Allen Solly,"Allen solly #12 Upper Ground Floor, Forum Center City Abba Road Nazarbad Mohalla Mysore-570010",12.311827,76.652962
99,Allen Solly AS Mainline Cherooty Road,Allen Solly 382-DB Road Old opposite Reliance FootPrint coimbatore 641002,11.436886,76.300575
154,Allen Solly AS Mainline FOCUS MALL,"Allen Solly,shop No-211,First floor,Focus Mall,Rajaji Road,Calicut-673008",11.258667,75.785332
155,Allen Solly Hilite Mall,"Allen Solly ,Shop No. 1108A, First floor 110 TI Business Park Hilite City Thondayad By pass, GA College PO, 673014",11.249028,75.834831
156,Allen Solly Hilite Mall,"Allen Solly ,Shop No. 1107A, Ground floor 01 TI Business Park Hilite City Thondayad By pass, GA College PO ,673014",11.248889,75.833473
157,Allen Solly Hilite Mall,"Allen Solly ,Shop No. 2067, Second Floor, 01 TI Business Park Hilite City Thondayad By pass, GA College PO, 673014",11.248444,75.833748
42,Allen Solly AS Mainline M G Road,"Allen solly ground floor 40/8876 , mg road, cochin - 682035",9.978139,76.283417
68,Allen Solly AS Mainline By pass Road,"Allen solly,shop No33/1914/D3, By-pass road ,palarivattom ,cochin -682028",9.997833,76.314468
1200,Allen Solly AS Junior LULU Mall,"Allen solly Junior ,Unit No.S 37,LULU International Shopping Mall,34/1000,NH 47,edappally Cochin -682024",10.026667,76.308083
4442,Allen Solly Allen Solly,"ALLENSOLLY,F 32&33,FIRST FLOOR,LULU MALL,COCHIN-682024",10.026900,76.307999
145,Allen Solly AS Mainline Lulu Mall,"Allen solly f32&33 1st floor,lulu mall,edappally,cochin-682024",10.026778,76.307831
4617,Allen Solly Allen Solly,"Allen Solly, Plot No: 43/1090, Door No:, Kurumpelil Avenue, Polayathodu Junction, Vadakkevila Village, Kollam, Kerala 691021",0.000000,0.000000
63,Allen Solly Center Shastry Road,"Allen Solly No. IX/492 Trade Center Shastry Road Kottayam kerala, 686001",9.592056,76.524750
77,Allen Solly AS Mainline Thrissur Palace Road,"Alllen Solly, Devassy Building, Palace Road, Thrissur 680020",10.526389,76.217804
4123,Allen Solly Allen Solly,"Allen Solly, Aditya Birla Fashion & Retail Ltd. , FS 20, FF, Sobha City Mall, Kuttoor Village, Thrissur 680551",10.549846,76.183426
14,Allen Solly AS Mainline MG Road - Trivandrum,"Allen Solly, No-25/2451,MG Road, Pulimoodu, Trivandrum-695001",8.494389,76.947777
2321,Allen Solly AS Junior Kowdiar,"Allen solly, Tc 4/162-10,Keston Road, kawdiar, Trivandrum-695003",8.515926,76.958778
160,Allen Solly AS Mainline C 21 Mall,"Allen solly, shop no 9 ground floor c 21 mall misroad road bhopal pin no -462026",23.167500,28.075001
181,Allen Solly AS Mainline DB Mall,"Allen solly , shop no f-10A, first floor DB city mall, Mp Nagar, Bhopal 462003 ,Madhaya pradesh .",23.232599,77.429901
4215,Allen Solly Allen Solly,"Allen Solly, F 25, 2nd floor, D B Mall, M P Nagar, Bhopal - 462003",23.232599,77.430000
1207,Allen Solly AS Mainline TI mall - Mainline,"Allen solly Mens, Shop no. 22 Second floor T.I Mall M.G road Indore Madhya pradesh 452001",22.721390,75.878334
4609,Allen Solly Allen Solly,"Allen Solly,Unit No. 22 shop No. situated at First floor, C21 Mall, at PU-4, A.B. Road, Indore, PIN 452010",0.000000,0.000000
53,Allen Solly AS Mainline RAJARAMPURI,"Allen Solly , 1856/A, E- ward, 6th Lane, RAJARAMPURI, KOLHAPUR, 416008",16.696333,74.247498
24,Allen Solly AS Mainline Korum Mall - Mumbai,"Allen Solly, Unit No F6, Korum Mall, Mangal Pandey road, Eastern Express Highway, Thane - 400601",19.202473,72.965691
26,Allen Solly AS Mainline Borivali,"Allen solly flagship store unit # 7, mayfair 14,tulsi baug,plot no 17a tsp no1,ramdas sutrale marg chandavarkar road,borivali mumbai-400092",19.231361,72.853584
54,Allen Solly AS Mainline Shimpoli Road,"Allen Solly,Shop No.15,Satra Park,Shimpoli Road,Opp.Veg Treat Hotel,Borivali (W). Mumbai - 400092",19.223749,72.848114
65,Allen Solly AS Junior Phoenix Lower Parel,"ALLEN SOLLY(JUNIOR),FIIA,SKYZONE,HIGHSTREET PHOENIX,LOWER PAREL,MUMBAI-400013.",18.995111,72.825638
102,Allen Solly AS Mainline Oberoi Mall,"Allen Solly, F-13, First Floor, Oberoi Mall, Western Express highway, Goregaon(e), Mumbai-400063",19.173944,72.860611
103,Allen Solly AS Mainline R City,"Allen solly shop No.G-36A ,R-city Mall,L.B.S. Road, Ghatkopar (W) Mumbai -400086",19.099611,19.099611
104,"Allen Solly AS Mainline Inorbit Mall, Malad","Allen Solly, Unit # F10/11 1st floor, Inorbit Mall, Link Road, Malad (West), Mumbai-400064",19.173000,72.835724
105,Allen Solly AS Women Phoenix High street,"Solly Women ,G2,GROUND FLOOR,GRAND GALLERIA,HIGHSTREET PHOENIX,LOWER PAREL,MUMBAI-400013.",18.994638,72.823723
106,"Allen Solly AS Mainline Phoenix Market City, Kurla","Allen Solly,G4, Phoenix Marketcity Mall L.B.S. Marg. Kamani Naka Kurla (W) Mumbai 400070",19.085972,72.888580
107,"Allen Solly AS Mainline Infinity mall, Malad","Allen Solly,Shop No112&113 1st floor infinity mall,malad (W). Mumbai - 400059",19.184807,72.834473
108,Allen Solly AS Mainline Vivan city,"Allen Solly,Shop No.G38 Ground floor Eastern Express Highway ,Next to Jupiter Hospital THANE (w) 400601",19.208973,72.972359
109,Allen Solly AS Junior R City,"Allen solly Junior, shop No.S-40 A ,Second Floor ,R-city Mall,L.B.S. Road, Ghatkopar (W) Mumbai -400086",19.099611,19.099611
110,Allen Solly AS Mainline Ghatkopar (W),"Allen solly shop No.F-51,First Floor ,R-city Mall,L.B.S. Road, Ghatkopar (W) Mumbai -400086",19.099611,19.099611
175,Allen Solly AS Mainline Inorbit Vashi,"Allen Solly Shop no G-6, Ground floor, Inorbit mall, Sector No 30, Vashi, Navi Mumbai- 400705",19.065779,73.000641
2027,Allen Solly AS Mainline VASHI,"AllenSolly,12-A Mahavir Centre,Turbhe Road, Sector-17,Vashi, Mumbai-400703.",19.074139,72.999359
3958,Allen Solly Allen Solly,"F-58,1st Floor,Seawoods Grand Central,NO R-1,Sector-40, Node Nerul,Seawoods Railway Station,Navi Mumbai-400706",13.048500,80.177498
4691,Allen Solly Allen Solly,"Unit no F-46 & F-58,First Floor,Grand Central Mall,Seawoods Station Road,Seawoods West,Navi Mumbai-400706",19.002850,73.014572
4510,Allen Solly ALLEN SOLLY,"53/B BUDHRAJA CENTER OPP, LIBERTY CINEMA SADAR NAGPUR.440001",21.157797,79.079514
4616,Allen Solly Allen Solly,"Allen Solly,Trillium Mall, First Floor, Unit no. 19,Medical Square to Baidyanath square Road, Rambagh, Nagpur -440003",0.000000,0.000000
100,Allen Solly AS Mainline City Centre Mall Nasik,"Allen Solly,Shop No MFS-16,Ground Floor,Nasik City Center Mall,Untewadi,Lawate Nagar,Nasik-422002",19.990768,73.759712
4512,Allen Solly Allen Solly,"Allen solly, Sy no. 718/2/3, Final Plot no. 475, bearing plot no. 6,Nashik-422002",20.004503,73.769386
7,Allen Solly AS Mainline J M ROAD,"Allen solly , 1260 A , sambaji mention , JM road , Pune : 411002",18.867779,74.435280
27,Allen Solly Hadapasar,"Allen Solly, Amanora Park township Village, Sadesatranali (17 1/2 Nalli), Hadapsar, Pune , 411028",12.971778,77.641113
32,Allen Solly AS Mainline Aundh,"Allen Solly Shop no 2 , S.no 167/168 , New Dp Road Aundh Pune 411007",18.564993,73.799362
55,Allen Solly AS Mainline KAKADE MALL,"Allen Solly, Shop No 9, SGS Mall, 231, Moledina Rd., Camp, PUne-411001",18.876732,74.470627
56,"Allen Solly AS Mainline Phoenix Market City, Pune","Allen Solly, Shop no UG 50, Phoenix Market City, Viman Nagar, Nagar Road, Pune 411 014.",18.562000,73.916901
59,Allen Solly AS Junior Phoneix Market City,"Allen Solly junior, 2nd floor, PMC Pune",18.520399,73.916901
60,Allen Solly Solly Jeans Phoenix Market City,"Solly Jeans Co,Unit No. F-55A, First Floor, Phoenix Market City, Viman Nagar Road, Lohegaon Haveli Pune.Maharastra 411014",18.562000,73.916901
4121,Allen Solly Allen Solly,"Allen Solly Unit No 15,Icc senapati bapt rd 30 Laxmi society model colony shivajinagar pune MH 411005",18.520399,73.856697
4198,Allen Solly Allen Solly,"Allen Solly, Shop No 1&2, Kalakmkar Paradise, Balewadi phata, Baner, Pune-411045",18.563000,73.783302
4618,Allen Solly Allen Solly,"Allen Solly, Unit No G12, Ground Floor,Seasons Mall, Magarpatta City, Hadapsar, Pune Maharashtra- 411013",0.000000,0.000000
4,Allen Solly AS Mainline RAMMARUTIRD,"Allen Solly, 2/3 R.M Pride ,Ram Maruti Road,Naupada,Thane ( West ) - 400602",19.192722,72.972420
86,Allen Solly AS Mainline JANPATH Near Pantaloons,Allen Solly Flagship store shop no- B - 53 Saheed Nagar Bhubaneswar -751007,20.292139,85.842499
4131,Allen Solly VH Mainline JANPATH,"ALLEN SOLLY,52/53 JANPATH,ASHOKNAGAR,BHUBANESWAR,ODISHA 751009",20.264973,85.839081
4513,Allen Solly Allen Solly,"Allen Solly Esplanade mall 1st floor Rasulgarh Industrial Estate, Bhubaneswar 751007",20.290001,85.849998
30,"Allen Solly AS Mainline Mall Road, Bathinda","Allen Solly Showroom ,2090-B Mall Road Bathinda Punajb -151001",30.211000,74.945503
13,Allen Solly AS Mainline Phase 7 Mohali,"Allen Solly , SCF-88 , Phase- 7 Market , SAS Nagar , Mohali , Punjab -160062",30.716307,76.707138
50,Allen Solly Solly Jeans SECTOR 17,"Allen Solly, SCO 20, Sector 17E, Chandigarh - 160017",30.740019,76.777657
79,Allen Solly AS Mainline Sector 17,"Solly Jeans, SCO-11, Near Indian Coffee House ,sector 17E, Chandigarh -160017",30.740862,76.780746
152,Allen Solly AS Mainline L & T Chandigarh,"Allen solly, No-126, 1st Floor, 178-178A, Elante Mall by L&T Industrial Area - Phase - 1, Chandigarh - 160002",30.705587,76.801147
153,Allen Solly AS Women L & T Elante,"Solly Women, Shop number 226, 2nd floor, Elante Mall, Chandigarh - 160002",30.705389,76.801247
2343,"Allen Solly Elante Mall, Chandigarh","Allen Solly, Shop No 126/127, 1st floor, Elante Mall, Industrial Area, Phase 1, Chandigarh - 160002",30.705601,76.801300
66,Allen Solly AS Mainline Model Town Market,"Allen Solly, 543 Model Town Market, Jalandhar City - 144003",31.306807,75.579865
116,Allen Solly AS Mainline MBD Neopolis Mall,"Allen solly,f-23,1st floor mbd neopolis mall ferozupur road ,ludhiana-141001",30.882860,75.781723
117,Allen Solly AS Mainline Pavilion Mall,"Allen Solly, Shop No. 104 A, 1st Floor, Bharti Pavilion Mall, Near Fountain Chowk, Ludhiana-141002",30.916000,75.840698
118,"Allen Solly AS Mainline Mall Road, Ludhiana","Allen Solly, #SF16(A),Second Floor, MDB NEOPOLIS Mall, Raj Guru Nagar,Ferojpur Road, Ludhiana-141012",30.882860,75.781723
119,Allen Solly AS Junior Silver Arc,"Allen Solly Junior,#B-XX-622,2nd floor,Silver Arc Mall,Ferozpur Road,Ludhiana-141001.",30.901306,75.853996
22,Allen Solly AS Mainline Celebration Mall,"Allen Solly, No G 15, ground floor, Celebaration Mall, Gaurav Path, Opposite Devendram Dham, Bhuwana, Udaipur - 313001",24.612556,73.702164
17,Allen Solly AS Mainline Annanagar,"Allen Solly, No: C-48 TNHB Ofiice Complex, 2nd Avenue, Anna Nagar, Chennai-600040",13.084694,80.215919
81,Allen Solly AS Mainline Mogappair,"Allensolly,shop no.3,Raj towers,Bearing No:105&106,HIG-1,Nolambur,Mogappair west,chennai-600037",13.081000,80.164581
146,"Allen Solly AS Mainline Phonenix Market City, Chennai","Allen Solly,Shop No:G-55,Phoenix Market City,No:142,Velachery Main Road,Velachery,Chennai-600042.",12.978611,80.218750
147,"Allen Solly AS Mainline Forum, Vadapalani","Allen Solly Shop No 25, No 183, Ground Floor, Forum Vijaya Mall, Arcot road, Vadapalani, The Forum Vijaya Mall, Chennai, Tamil Nadu 600026",13.050917,80.209526
148,Allen Solly AS Mainline Ampa Mall,"Allen solly No.102,1st Flr, skywalk Ampa No.1 Nelson Manickam Road , 627 Poonamallee High Road ,Aminjikarai, Chennai-29",30.366220,78.070374
149,Allen Solly AS Junior Express avenue,"Allen Solly junior, Top Floor, Express Avenue Mall",13.058667,80.264305
150,Allen Solly AS Business Store Express Mall,"Allen Solly no-117-118,1st floor,Express Avenue,no.49-50L whites road,Royapettah,Chennai-600014",13.058667,80.264305
3961,Allen Solly Allen solly,"No:174/B ,Palaniappa nagar , Arcot road , Valasaravakkam , Chennai - 600087",13.048500,80.177498
4172,Allen Solly Allen solly,"Unit no:F38A,Phoenix market city,No:142,Velacherry main road,Chennai-600042",12.988200,80.218300
4244,Allen Solly Allen Solly,"First floor, F-46,  VR Chennai, Jawaharlal Nehru Salai, Anna Nagar West, Chennai, Tamil Nadu 600040",13.080500,80.197304
4246,Allen Solly Allen Solly,"Allen Solly, Store no. F46,VR Mall , Pillaiyar Koil Street, Jawaharlal Nehru Road, Anna Nagar, Chennai-600040",13.080700,80.197502
4247,Allen Solly Allen Solly,"Allen Solly, Unit No. F 38A, Phoenix Market City, No 142, Velacherry Main Road, Chennai - 600042",12.991500,80.216904
4577,Allen Solly Allen Solly,"Allen Solly, Plot No. 1, Door No.4B, Survey number 274/4, Town Survey number 5,6 7 (7/2), 100 Ft Taramani Link Rd, Velachery, Chennai -600042",0.000000,0.000000
4578,Allen Solly Allen Solly,"Allen Solly,Marina Mall, #13/1A Egattur village,Thiuporur Taluk, Kanchipuram district, Tamilnadu-603103",0.000000,0.000000
4579,Allen Solly Allen Solly,"Allen Solly, No 121, Ground floor & First floor , GST road, Chrompet , Chennai- 600044",0.000000,0.000000
2,Allen Solly AS Mainline DBROAD,Allen Solly 382 -D.B.Road old opposite Reliance Footprint R.S Puram Coimbatore -641002,11.004250,76.951248
47,Allen Solly AS Mainline D B ROAD (New),"Allen Solly 581/1,D.B.Road,R.S.Puram,Coimbatore-641001",11.011278,76.950279
144,Allen Solly AS Mainline Brookefield,"ALLEN SOLLY,G-23,GROUND FLOOR,BROOKE FIELDS PLAZA,KRISHNASAMY ROAD,COIMBATORE-641001",11.008583,76.959831
4615,Allen Solly Allen Solly,"""Allen Solly, Brookfields mall, Shop No 3Second floor No. 67-71, Krishnaswamy Road,Coimbatore-641001""",0.000000,0.000000
46,Allen Solly AS Mainline Saradha College Road,"Allen Solly, No-382, Saradha College road,Alaghapuram, Salem,Tamilnadu - 636016",11.676750,78.140305
4194,Allen Solly Allen Solly,"AllenSolly, Mall of Travancore,Near Ananthapuri Hospital, Chacka Bypass,Trivandrum - 695024",8.487686,76.926010
4243,Allen Solly Allen Solly,"Allen Solly, B-17, Sastri Road Thillainagar, Tirucharapalli.",10.824950,78.686554
4245,Allen Solly Allen Solly,"Allen Solly, GF , Plot No.B-17, of the North East Extension of the Trichirapalli Co-operative House Construction Society Ltd, Thillai Nagar situated on the western Side of “Sastri Road, Trichy- 18",10.824840,78.686554
4192,Allen Solly ALLEN SOLLY,"Allen Solly,L3-07, Hyderabad Next Galleria at Hitec City, Beside NIFT University, Survey No. : 64, Madhapur (v), Serlingampally.",17.448374,78.384537
4212,Allen Solly ALLEN SOLLY,"Allen Solly, Next Galaria Mall, Panjagutta, Hyderabad",17.429655,78.450127
4213,Allen Solly ALLEN SOLLY,"Allen Solly, L3 - 07, Nest Galleria Mall, Hi Tech City, Hyderabad",17.447399,78.376198
4401,Allen Solly Allen Solly,"Allen solly,Unit No-1F-109,1st Floor,Sarath City Capital mall, Kothaguda Village,Serilingampally mandal,RR District,Hyderabad-500084",17.457281,78.364647
4607,Allen Solly Allen Solly,"""ALLEN SOLLYShop No 4, Door No 8-15/3, Plot No 2&3, Qutubullahpur, Kompally, Hyderabad, Telangana. Pin 50006""",0.000000,0.000000
4612,Allen Solly Allen Solly,"Allen Solly, Syno 69, Bearing no. 16-11-766, Ground Floor & First Floor, Moosrambagh, Hyderabad, Telanagana 500036",0.000000,0.000000
4613,Allen Solly Allen Solly,"Allen Solly, Shop no 16&17, Situated in First Floor,""GVK mall"", Located at 6-3-251,6-3-251/1 and 6-3-251/5 to 6-3-251/7, road no.1,Banjara Hills, Hyderabad, Telanagana 500034",0.000000,0.000000
11,Allen Solly AS Mainline Banjara Hills,"ALLEN SOLLY , Shop no:86, Ground floor, Road no:2, Near LV Prasad eye Hospital, Banjara hills, Hyderabad-500034 Telangana",28.570833,78.431580
19,Allen Solly Kukatpally,"Allen Solly, G1 Ground floor H, No MIG , 5, Road No 1, KPHP Colony, Kukatpally, Hyderabad , 500072",17.492832,78.402275
49,Allen Solly AS Mainline Himayathanagar,"Allen Solly, Shop No. 3-6-150, Himayatnagar, Hyderabad, Telangana - 500029",17.402250,79.483612
69,Allen Solly AS Mainline Dilsukhnagar,"Allen Solly No.17-109,Plot No.2&3,Chaitanyapuri,Dilsukhnagar,Hyd-500060,Telangana State",17.368639,78.388863
89,Allen Solly AS Mainline Habsiguda,"Allen Solly, H No1 - 31/1A, Block 3, Plot No 2/B, Part of G block, Habsiguda main road, Hyderabad - 500007",17.692528,78.915443
132,Allen Solly AS Mainline GVK Mall,"allen solly, shop no 7 & 8 gvk one mall 1st floor. banjara hills road no 1. 500032",17.419611,78.448303
133,Allen Solly AS Women Forum Sujana Mall,"Allen solly Womens, shop no 202 second floor forum sujana Mall kukatapally JNTU road ,hyderabad 500072, 040-30534141",17.483999,78.388863
134,Allen Solly AS Mainline Forum Sujana Mall,"Allen solly, #122,Forum Sujana Mall Kukkatpally, Hyderabad.AP 500072",17.483999,78.388863
135,Allen Solly AS Junior GVK,"ALLEN SOLLY JUNIOUR, Shop no:09, GVK Mall, Road no:01, Banjara Hills, Hyderabad-500034",17.420029,78.448196
1659,Allen Solly AS Mainline Kukatapally,"Allen Solly, G1 Ground floor H, No MIG - 5, Road No 1, KPHP Colony, Kukatpally, Hyderabad - 500072",17.492832,78.402275
4105,Allen Solly Allen Solly,"Allen solly,L3 04 &05, L&T Metro Mall( Next) B7 Nagarjuna Hills, Panjagutta, Hyderabad,Telangana 500082",18.520399,73.856697
8,Allen Solly AS Mainline PARKLANE,"Allen Solly,1-2-235,95 parklane, krishnas Allen Solly, opp to hotel parklane, Secunderabad-500003, Telangana",17.441305,78.490082
1203,Allen Solly AS Mainline SPS Plaza,"Allen Solly,#2-5-294/a, sps plaza, nakkalagutta, hanamkonda, telangana pin:506001",17.999027,79.554832
3245,Allen Solly Allen Solly,"Allen Solly, Site No.28-A, shop No-1, Opp Coffee House, M.G Marg, Civil Lines, allahabad-211001",32.709316,74.893112
138,Allen Solly AS Mainline Mahagun Mall,"Allen Solly, Shop No 16, Mahagun Metro Mall, Sector 3, Vaishali, Ghaziabad - 201001",28.645056,77.335609
139,Allen Solly AS Mainline Gaur Mall,"Allen Solly, Shop No. FF-02, Gaur Central Mall, Raj Nagar Dist. Center ,Ghaziabad 201002",28.673834,77.440086
140,Allen Solly AS Mainline Shipra Mall,"Allen Solly, Shop No. 25&45 Level -II Ground Floor Shipra Mall Plot No. 9 Vaibhav Khand Indirapuram Ghaziabad 201014",28.633862,77.370087
4527,Allen Solly Allen Solly,"Allen Solly, Shop No 16, Ground floor Mahagun Metro Mall, Plot No- VC- 3 Sector 3 ,Vaishali, Gaziabad Uttar Pradesh-201010",0.000000,0.000000
137,Allen Solly AS Mainline Civil Lines,"Allen solly, shop no-1 fist floor city mall gorakhpur 273001 ph no- 0551 2204654",26.753471,83.375168
4626,Allen Solly Allen Solly,"Allen solly, 607 Bela Road Sadar Bazar Jhansi-(U.P.) 284001",25.436298,78.567352
129,Allen Solly AS Junior Zsquare shoping mall,"Allen Solly Junior, Z square Kanpur mall 208001",26.451721,80.323860
130,Allen Solly Solly Jeans Zsquare shoping mall,"Solly Jeans Co, 26,FF,Zsquare shoping mall 16/113,M G road Khanpur 208001",26.451721,80.323860
131,Allen Solly AS Mainline Z Square,"Allen Solly, shop No, 12,1st floor Z square mall 16/113 mg Marg Kanpur. 208001",26.451721,80.323860
4504,Allen Solly Allen Solly,"Allen Solly , Shop No. 12 , First Floor , Z Square Mall ,16/113 MG Marg Kanpur - 208001",26.477276,80.352913
29,Allen Solly AS Mainline Huzratgunj,allen solly showroom shop no-11 gf motor sales building mg marg,26.850918,80.940636
2132,Allen Solly AS Mainline Hazratganj,"Allen Solly,#103A Saharaganj Mall ,shahnajaf road,Hazratganj Lucknow-226001",26.855259,26.855259
2133,Allen Solly AS Mainline Saharaganj Mall,"Allen Solly, Shop no 11, Motor sales building, MG Marg, Hazratganj, Lucknow-226001",26.856676,80.944756
4041,Allen Solly Allen Solly - Fun Republic Mall,Allensolly Shop No:105-A-UGF Fun Republic Mall Gomti nagar Lucknow-221060,26.858047,80.976112
4127,Allen Solly Allen Solly,"Allen Sollly Unit No. G-6 Ground floor Pheonix Mall Sector B, LDA Ccolony Lucknow - 226012",80.896927,26.798967
4658,Allen Solly Allen Solly,"Unit No. S-15,16 Second Floor, Phoenix United Market City, Kanpur Rd, Sector B, LDA Colony, Lucknow, Uttar Pradesh 226012",26.799026,80.896973
21,Allen Solly AS Mainline Meerut,Allen Solly T4/T5 Bombay bazaar Near hanuman chowk sadar meerut cantt 250001,28.997583,77.698471
111,Allen Solly AS Mainline Shopprix Mall,"Allen solly,Shop no. 7,Upper ground floor,Shopprix mall, Delhi road Meerut-250002",28.947805,77.675026
48,Allen Solly AS Mainline GAUSALA ROAD,"Allen Solly Shop NO.83,Chari Gali,Gausala Road,Muzaffarnagar,251001",29.469528,77.711723
101,Allen Solly Grand Mall,"Allen Solly, GF 4,5,6 ASJ Grand Plaza Bhopa Road, near Mandi, Muzafarnagar , Uttar Pradesh 251001",29.473110,77.715279
10,Allen Solly AS Mainline F-16,"Allen Solly,F-16, Sec - 18 Noida 201301 U.P.",28.570862,77.322525
71,Allen Solly AS Mainline UNITECH,"Allen Solly , Shop No -27(G), Ground Floor. The Great India Place Mall , Sector - 38(A). Noida - 201301",28.956806,77.551308
72,Allen Solly AS Mainline Ansal Plaza,"Allen Solly, AG-72 Ansal Plaza, Knowledge park-1, Greater Noida - 201304",28.535807,77.389832
1202,Allen Solly AS Mainline Mall of India,"Allen solly - Mainline, Shop No. F-265, First Floor, DLF Mall Of India Plot No. MO3 Sector 18 Noida-201301",28.953417,77.537941
1204,Allen Solly AS Mainline Mall of India,"Allen solly - Mainline, Shop No. F-265, First Floor, DLF Mall Of India Plot No. MO3 Sector 18 Noida-201301",28.953417,77.537941
1205,Allen Solly AS Women Mall of India,"Allen solly - Women, Shop No. D-333, Second Floor, DLF Mall Of India Plot No. MO3 Sector 18 Noida-201301",28.953417,77.537941
1660,Allen Solly AS Junior Mall of India,Allen solly Junior Shop No. D-427 Mall Of India Plot No. MO3 Sector 18 Noida-201301,28.953417,77.537941
1786,Allen Solly AS main Line Galleria Mall,"Allen Solly, Unit No. SH-133, Ground Floor, Gardens Galleria Mall, Plot No. A-2, Sec 38A, Noida-201301",28.564955,77.321854
44,Allen Solly AS Mainline Sigra,"Allen Solly ,Shop No.D58/9A,1K rathyatra road sigra varanasi 221010",25.318174,82.971992
16,Allen Solly AS Mainline Rajpur Road - Dehradun,"Allen Solly # 448/1, Rajpur Road, Dehradun, Uttrakhand 248001",30.341223,78.060303
143,"Allen Solly AS Mainline Pacific Mall, Dehradun","Allen Solly, Shop No. Ugf--21 Pacifc Mall Dehradun-248001",30.366528,78.070557
4566,Allen Solly Allen Solly,Allen Solly UGF-06 pacific mall Dehradun near scholar home school,0.000000,0.000000
4567,Allen Solly Allen Solly,Allen Solly 448/1 Rajpur Road Dehradun,0.000000,0.000000
88,Allen Solly AS Mainline Haldwani,Allen Solly khurana compound Nainital Road HALDWANI Uttrakhand -263139,29.238028,79.533195
142,Allen Solly Junction Mall,"Allen Solly, Shop # UG 23, Junction Mall Citi Center, Faridpur, Burdwan, Durgapur , 713216",23.538944,87.291832
41,Allen Solly AS Mainline SALT LAKE,allen solly A001. city center 1 kolkata 700064,22.587528,88.408142
124,Allen Solly AS Mainline South City,"ALLEN SOLY SHOP NO-220 2ND FLOOR, SOUTH CITY MALL KOLKATA-700068",22.837639,88.364723
125,"Allen Solly AS Mainline City Center, Kolkotta (II)","Allen Solly, unit no-m1002,1st floor, block-m,plot #AA-iiD/5 CITY CENTRE NEW TOWN,Rajarhat, Kolkata-700157",22.622749,88.450195
126,Allen Solly AS Mainline Avani River Side Mall,"Allen Solly, Shop No 51, Avani River side Mall, 32FF, Jagat Bannerjee ghat road Howrah, Kolkata - 711102",22.562750,88.323975
127,Allen Solly AS Mainline Quest Mall,ALLEN SOLLY QUEST MALL SHOP NUMBER 227 SECOND FLOOR #33 SAYED AMIR ALI AVENUE KOLKATA-700017,22.908333,88.615829
1201,Allen Solly AS Junior Acropolis,"Allen Solly Junior,Shop no-3&4,2nd floor,Acropolis mall,Rajdanga Main Road,Kasba,Kolkata-700107",22.514668,88.393143
4257,Allen Solly Allen Solly,"SECOND FLOOR, South City Mall, Shop#207, 375, PRINCE ANWARSAH ROAD, Kolkata, West Bengal 700068",22.501699,88.361900
4398,Allen Solly Allen Solly,"ADITYA BIRLA FASHION & RETAIL LTD,#123,FIRST FLOOR,MANI SQUARE MALL,164/1,MANIKTALA RD,EM BYPASS,KOLKATA - 700054",0.000000,0.000000
4400,Allen Solly Allen Solly,"ALLEN SOLLY , DAIMOND PLAZA MALL , UNIT NUMBER -09A, 68, JESSORE ROAD , KOLKATA-700055, WEST BENGAL,",0.000000,0.000000
4552,Allen Solly Allen Solly,"ALLEN SOLLY, QUEST MALL SHOP NO.227, 2ND FLOOR, #33, SAYED AMIR ALI AVENUE, KOLKATA - 700017",22.539301,88.365578
43,Allen Solly AS Mainline Cosmos Mall,"Allen Solly, Shop number. UG-6, 2nd Mile, Sevoke Road, Siliguri, West Bengal-734001",26.739140,88.433914
180,Allen Solly AS Junior CITY CENTRE MALL,"Allen Solly Junior,SHOP NO B0016,BLOCK B,GROUND FLOOR CITY CENTRE MALL,MATIGARA SILIGURI 734010",26.724388,88.395027
